IRIDIUM 126             
1 42809U 17039G   24002.55341900  .00000349  00000+0  11738-3 0  9996
2 42809  86.3970   8.3500 0002548  91.4522 268.6966 14.34215934341430
IRIDIUM 124             
1 42810U 17039H   24002.32726276  .00000510  00000+0  14572-3 0  9995
2 42810  86.4498 305.1996 0002052  79.3556 280.7876 14.43268024345759
IRIDIUM 128             
1 42811U 17039J   24002.61391750  .00000342  00000+0  11519-3 0  9994
2 42811  86.3958  39.8415 0002273  91.7170 268.4286 14.34218744341479
IRIDIUM 121             
1 42812U 17039K   24002.50267967  .00000347  00000+0  11680-3 0  9999
2 42812  86.3971   8.3931 0002265  92.4371 267.7084 14.34216378341302
IRIDIUM 133             
1 42955U 17061A   24002.57586183  .00000147  00000+0  45261-4 0  9994
2 42955  86.3961  39.9532 0002319  95.0751 265.0710 14.34215770326267
IRIDIUM 100             
1 42956U 17061B   24002.56952111  .00000309  00000+0  10318-3 0  9996
2 42956  86.3958  39.8954 0002226  91.4050 268.7400 14.34218968326268
IRIDIUM 122             
1 42957U 17061C   24002.60757797  .00000289  00000+0  96091-4 0  9995
2 42957  86.3960  39.8774 0002303  89.0008 271.1451 14.34217069326270
IRIDIUM 129             
1 42958U 17061D   24002.56317807  .00000310  00000+0  10372-3 0  9997
2 42958  86.3960  39.9538 0002352  91.0010 269.1455 14.34219081326288
